NORAD_CAT_ID,EPOCH,MEAN_MOTION,ECCENTRICITY,INCLINATION,RA_OF_ASC_NODE,ARG_OF_PERICENTER,MEAN_ANOMALY,APOAPSIS,PERIAPSIS,BSTAR,COUNTRY_CODE,RCS_SIZE,NAME,LINE1,LINE2
27772,2025-08-08T09:42:44.807328,13.66927489,0.0052898,52.0228,221.7907,94.9601,49.0316,1049.709,971.539,0.010285,GLOB,SMALL,0 GLOBALSTAR DEB,1 27772U 99031F   25220.40468527  .00008575  00000-0  10285-1 0  9996,2 27772  52.0228 221.7907 0052898  94.9601  49.0316 13.66927489103995
27792,2025-08-05T10:54:24.789312,2.78179012,0.680534,26.4802,287.3788,174.2431,202.1347,29511.268,444.366,0.0020797,US,MEDIUM,0 TITAN 3C TRANSTAGE DEB,1 27792U 65108BG  25217.45445358  .00000549  00000-0  20797-2 0  9997,2 27792  26.4802 287.3788 6805340 174.2431 202.1347  2.78179012257923
27793,2025-08-04T05:40:36.739776,3.12018979,0.6493816,26.2759,215.0554,156.4469,256.7044,26250.756,557.973,0.00030091,US,SMALL,0 TITAN 3C TRANSTAGE DEB,1 27793U 65108BH  25216.23653634  .00000048  00000-0  30091-3 0  9994,2 27793  26.2759 215.0554 6493816 156.4469 256.7044  3.12018979126495
27796,2025-08-08T16:01:31.726848,2.01735105,0.6933529,65.5481,28.3032,21.264,357.1571,38423.617,1734.957,0.0,CIS,MEDIUM,0 COSMOS 1261 DEB,1 27796U 81031H   25220.66772832  .00000828  00000-0  00000-0 0  9994,2 27796  65.5481  28.3032 6933529  21.2640 357.1571  2.01735105179563
27800,2025-08-08T20:30:22.847904,1.97644125,0.7089264,64.427,103.6389,36.3025,355.5675,39457.431,1428.827,0.0,CIS,MEDIUM,0 COSMOS 1285 DEB,1 27800U 81071P   25220.85443111  .00000136  00000-0  00000-0 0  9992,2 27800  64.4270 103.6389 7089264  36.3025 355.5675  1.97644125187233
27801,2025-08-08T19:41:25.927872,1.97985684,0.7199887,64.0883,77.8203,38.6345,355.6199,39701.063,1123.482,0.0,CIS,MEDIUM,0 COSMOS 1285 DEB,1 27801U 81071Q   25220.82043898 -.00000156  00000-0  00000-0 0  9991,2 27801  64.0883  77.8203 7199887  38.6345 355.6199  1.97985684177385
27803,2025-08-08T09:13:07.194720,14.0382234,0.0038108,65.8132,204.3701,241.7402,267.8208,908.253,852.93,0.00066204,CIS,SMALL,0 COSMOS 1375 DEB,1 27803U 82055BQ  25220.38411105  .00000964  00000-0  66204-3 0  9994,2 27803  65.8132 204.3701 0038108 241.7402 267.8208 14.03822340748092
27804,2025-08-09T10:53:43.586016,12.78777198,0.0364221,82.6353,228.8433,166.865,348.4104,1627.736,1065.049,0.012416,CIS,SMALL,0 SL-14 DEB,1 27804U 91068AR  25221.45397669  .00003677  00000-0  12416-1 0  9994,2 27804  82.6353 228.8433 0364221 166.8650 348.4104 12.78777198 72426
27805,2025-08-08T17:44:30.575328,6.77145114,0.4242485,65.2135,24.7634,88.1454,318.5444,10430.526,416.755,0.0066966,CIS,SMALL,0 SL-12 DEB,1 27805U 92047L   25220.73924277  .00013386  00000-0  66966-2 0  9992,2 27805  65.2135  24.7634 4242485  88.1454 318.5444  6.77145114503756
27806,2025-08-05T21:43:01.968960,14.31935849,0.0107874,98.9213,236.4816,294.188,64.8057,862.544,707.995,5.3985e-05,PRC,SMALL,0 CZ-4 DEB,1 27806U 99057MW  25217.90488390  .00000105  00000-0  53985-4 0  9991,2 27806  98.9213 236.4816 0107874 294.1880  64.8057 14.31935849238242
27821,2025-08-08T18:34:40.729728,6.1402978,0.4712003,49.5083,31.9994,216.8253,99.1294,12154.935,283.284,0.00085316,CIS,LARGE,0 BREEZE-M DEB (TANK),1 27821U 03024B   25220.77408252  .00008343  00000-0  85316-3 0  9999,2 27821  49.5083  31.9994 4712003 216.8253  99.1294  6.14029780455533
27833,2025-08-08T09:44:57.023520,2.26543457,0.7153553,6.3828,235.7102,79.4913,347.4787,35628.857,592.472,0.00022919,FR,LARGE,0 ARIANE 5 DEB (SYLDA),1 27833U 03028D   25220.40621555 -.00000124  00000-0  22919-3 0  9999,2 27833   6.3828 235.7102 7153553  79.4913 347.4787  2.26543457183015
27864,2025-08-09T08:57:49.364928,2.66372461,0.6697194,26.9018,303.1773,43.4627,3.3021,30326.349,882.234,-0.0066465,US,SMALL,0 TITAN 3C TRANSTAGE DEB,1 27864U 65108BK  25221.37348802 -.00000249  00000-0 -66465-2 0  9990,2 27864  26.9018 303.1773 6697194  43.4627   3.3021  2.66372461223763
27865,2025-07-26T09:00:40.949280,2.60312334,0.67280138,26.9419,292.3422,221.5389,91.5558,30962.617,925.686,0.011811422,US,SMALL,0 TITAN 3C TRANSTAGE DEB,1 27865U 65108BL  25207.37547395  .00000078  00000-0  11811-1 0  9995,2 27865  26.9419 292.3422 6728014 221.5389  91.5558  2.60312334220992
27866,2025-07-31T09:27:37.918368,2.60545382,0.6572473,26.5557,177.399,243.7383,330.006,30593.351,1268.326,0.0,US,MEDIUM,0 TITAN 3C TRANSTAGE DEB,1 27866U 65108BM  25212.39418887  .00000048  00000-0  00000-0 0  9991,2 27866  26.5557 177.3990 6572473 243.7383 330.0060  2.60545382115409
27867,2025-08-08T01:28:43.885920,2.66872659,0.6628707,25.9384,176.1367,119.7752,353.9576,30130.108,1023.522,0.0,US,MEDIUM,0 TITAN 3C TRANSTAGE DEB,1 27867U 65108BN  25220.06161905 -.00000014  00000-0  00000+0 0  9994,2 27867  25.9384 176.1367 6628707 119.7752 353.9576  2.66872659231074
27878,2025-08-05T11:08:08.952000,2.84268284,0.6719483,26.4169,266.2481,207.2761,347.0832,28816.172,527.313,0.0019818,US,MEDIUM,0 TITAN 3C TRANSTAGE DEB,1 27878U 65108BP  25217.46399250  .00000275  00000-0  19818-2 0  9990,2 27878  26.4169 266.2481 6719483 207.2761 347.0832  2.84268284117228
27881,2025-08-08T07:16:25.338720,13.86917887,0.0041582,82.9387,335.5797,188.7956,200.5196,969.882,909.026,0.00057053,CIS,SMALL,0 COSMOS 887 DEB,1 27881U 76128C   25220.30307105  .00000686  00000-0  57053-3 0  9993,2 27881  82.9387 335.5797 0041582 188.7956 200.5196 13.86917887211531
27883,2025-08-08T04:04:51.087936,2.02146443,0.7354054,60.9544,273.8606,45.0423,354.9515,39473.911,612.856,-0.0015025,CIS,MEDIUM,0 COSMOS 917 DEB,1 27883U 77047F   25220.17003574 -.00000589  00000-0 -15025-2 0  9990,2 27883  60.9544 273.8606 7354054  45.0423 354.9515  2.02146443169077
27884,2025-08-07T07:11:06.668736,2.01692999,0.7405538,60.4833,264.1761,55.7312,353.6001,39678.84,487.098,0.00046644,CIS,MEDIUM,0 COSMOS 917 DEB,1 27884U 77047G   25219.29938274  .00001549  00000-0  46644-3 0  9993,2 27884  60.4833 264.1761 7405538  55.7312 353.6001  2.01692999167545
27887,2025-08-06T07:08:41.744832,1.97913779,0.6490334,63.7988,265.115,10.4329,3.1979,37810.841,3026.68,0.0,CIS,SMALL,0 COSMOS 917 DEB,1 27887U 77047K   25218.29770538  .00000473  00000-0  00000+0 0  9999,2 27887  63.7988 265.1150 6490334  10.4329   3.1979  1.97913779191062
27888,2025-08-07T09:28:08.310432,2.01959973,0.7349661,61.0503,279.6213,45.0983,354.9031,39490.516,628.773,-0.00016581,CIS,MEDIUM,0 COSMOS 917 DEB,1 27888U 77047L   25219.39454063  .00000763  00000-0 -16581-3 0  9992,2 27888  61.0503 279.6213 7349661  45.0983 354.9031  2.01959973211863
27897,2025-08-08T13:14:30.021504,1.99180369,0.7291873,63.4915,38.4603,43.7603,355.0705,39762.07,848.007,0.0,CIS,MEDIUM,0 COSMOS 1191 DEB,1 27897U 80057K   25220.55173636  .00001018  00000-0  00000+0 0  9999,2 27897  63.4915  38.4603 7291873  43.7603 355.0705  1.99180369164717
27898,2025-08-08T12:37:11.202240,1.99688767,0.696448,64.6764,89.5396,32.9473,355.8193,38811.618,1707.842,0.0,CIS,MEDIUM,0 COSMOS 1191 DEB,1 27898U 80057L   25220.52582410 -.00001025  00000-0  00000+0 0  9990,2 27898  64.6764  89.5396 6964480  32.9473 355.8193  1.99688767172728
27899,2025-08-04T16:21:56.255040,2.02584791,0.6375017,67.7051,64.208,283.7915,16.7871,36824.713,3185.799,0.0,CIS,MEDIUM,0 COSMOS 1217 DEB,1 27899U 80085J   25216.68190110  .00000185  00000-0  00000-0 0  9992,2 27899  67.7051  64.2080 6375017 283.7915  16.7871  2.02584791169810
27905,2025-08-08T03:30:45.534240,2.00211821,0.6990479,62.3015,208.7262,35.7593,1.8253,38802.013,1624.618,0.0,CIS,LARGE,0 COSMOS 1382 DEB,1 27905U 82064G   25220.14636035  .00001056  00000-0  00000-0 0  9994,2 27905  62.3015 208.7262 6990479  35.7593   1.8253  2.00211821178614
27918,2025-08-07T03:33:24.508512,4.49514616,0.5391062,66.1175,176.3168,302.5001,16.4009,17491.249,769.683,-0.0068322,CIS,MEDIUM,0 SL-12 DEB,1 27918U 87079AB  25219.14820033 -.00000532  00000-0 -68322-2 0  9993,2 27918  66.1175 176.3168 5391062 302.5001  16.4009  4.49514616357548
27950,2025-08-08T15:59:29.702400,2.24965227,0.714042,7.3327,82.2572,248.4746,34.0429,35792.781,657.347,-0.00052189,FR,LARGE,0 ARIANE 5 DEB (SPELTRA),1 27950U 03043D   25220.66631600 -.00000219  00000-0 -52189-3 0  9994,2 27950   7.3327  82.2572 7140420 248.4746  34.0429  2.24965227179701
27952,2025-08-08T13:40:44.369472,2.2630317,0.7127278,7.4316,60.2486,292.0314,9.7535,35594.197,661.795,-0.0016972,FR,LARGE,0 ARIANE 5 DEB (SYLDA),1 27952U 03043F   25220.56995798 -.00000258  00000-0 -16972-2 0  9998,2 27952   7.4316  60.2486 7127278 292.0314   9.7535  2.26303170180382
27958,2025-08-09T02:36:01.281888,6.06972653,0.4670459,65.1274,158.8699,349.7436,3.2876,12245.572,387.557,0.08664,CIS,SMALL,0 SL-12 DEB,1 27958U 87079AX  25221.10834817  .00197474  00000-0  86640-1 0  9993,2 27958  65.1274 158.8699 4670459 349.7436   3.2876  6.06972653371084
28039,2025-08-05T14:58:36.812352,2.5821016,0.6646957,7.0326,229.7789,104.6979,11.058,30983.093,1147.193,0.0,FR,MEDIUM,0 ARIANE 44L DEB,1 28039U 91003M   25217.62403718 -.00000150  00000-0  00000+0 0  9999,2 28039   7.0326 229.7789 6646957 104.6979  11.0580  2.58210160264546
28040,2025-07-29T11:50:30.539328,2.76474843,0.6444358,8.0119,36.9083,229.2002,24.8873,28884.521,1246.448,0.0,FR,MEDIUM,0 ARIANE 44LP DEB,1 28040U 91015P   25210.49340902 -.00000103  00000-0  00000-0 0  9996,2 28040   8.0119  36.9083 6444358 229.2002  24.8873  2.76474843121602
28041,2025-08-07T03:34:46.886592,2.84916847,0.658187,7.0934,92.3592,220.341,340.339,28473.508,806.064,0.00062725,FR,MEDIUM,0 ARIANE 44L DEB,1 28041U 91075L   25219.14915378 -.00000102  00000-0  62725-3 0  9993,2 28041   7.0934  92.3592 6581870 220.3410 340.3390  2.84916847242488
28042,2025-08-09T12:37:20.353728,14.13374263,0.007195,70.8702,284.6676,216.366,207.6393,899.841,795.859,0.00035496,CIS,SMALL,0 SL-16 DEB,1 28042U 92093JP  25221.52593002  .00000635  00000-0  35496-3 0  9991,2 28042  70.8702 284.6676 0071950 216.3660 207.6393 14.13374263468807
